[{"OBJECT_NAME":"SL-8 R/B","OBJECT_ID":"1979-089B","EPOCH":"2026-04-07T12:42:27.702720","MEAN_MOTION":14.42371421,"ECCENTRICITY":0.0016405,"INCLINATION":74.0706,"RA_OF_ASC_NODE":37.6549,"ARG_OF_PERICENTER":206.1581,"MEAN_ANOMALY":153.8749,"EPHEMERIS_TYPE":0,"CLASSIFICATION_TYPE":"U","NORAD_CAT_ID":11574,"ELEMENT_SET_NO":999,"REV_AT_EPOCH":44026,"BSTAR":0.00011245647,"MEAN_MOTION_DOT":3.46e-6,"MEAN_MOTION_DDOT":0},{"OBJECT_NAME":"SL-14 R/B","OBJECT_ID":"1980-005B","EPOCH":"2026-04-07T12:27:41.778720","MEAN_MOTION":14.90966329,"ECCENTRICITY":0.0017115,"INCLINATION":82.5108,"RA_OF_ASC_NODE":279.8803,"ARG_OF_PERICENTER":69.3997,"MEAN_ANOMALY":290.9056,"EPHEMERIS_TYPE":0,"CLASSIFICATION_TYPE":"U","NORAD_CAT_ID":11672,"ELEMENT_SET_NO":999,"REV_AT_EPOCH":48078,"BSTAR":6.1765184e-5,"MEAN_MOTION_DOT":6.37e-6,"MEAN_MOTION_DDOT":0},{"OBJECT_NAME":"SL-8 R/B","OBJECT_ID":"1981-003B","EPOCH":"2026-04-07T11:10:40.687680","MEAN_MOTION":15.12341007,"ECCENTRICITY":0.02589612,"INCLINATION":82.9364,"RA_OF_ASC_NODE":263.3859,"ARG_OF_PERICENTER":78.7265,"MEAN_ANOMALY":284.2947,"EPHEMERIS_TYPE":0,"CLASSIFICATION_TYPE":"U","NORAD_CAT_ID":12139,"ELEMENT_SET_NO":999,"REV_AT_EPOCH":31902,"BSTAR":0.00055630467,"MEAN_MOTION_DOT":0.00022384,"MEAN_MOTION_DDOT":0},{"OBJECT_NAME":"SL-3 R/B","OBJECT_ID":"1981-046B","EPOCH":"2026-04-07T14:08:58.435008","MEAN_MOTION":15.42761594,"ECCENTRICITY":0.00180356,"INCLINATION":81.2297,"RA_OF_ASC_NODE":255.0149,"ARG_OF_PERICENTER":279.1509,"MEAN_ANOMALY":80.7694,"EPHEMERIS_TYPE":0,"CLASSIFICATION_TYPE":"U","NORAD_CAT_ID":12465,"ELEMENT_SET_NO":999,"REV_AT_EPOCH":44288,"BSTAR":0.00028516048,"MEAN_MOTION_DOT":0.00012573,"MEAN_MOTION_DDOT":0},{"OBJECT_NAME":"SL-3 R/B","OBJECT_ID":"1981-103B","EPOCH":"2026-04-07T13:50:04.647552","MEAN_MOTION":15.21736171,"ECCENTRICITY":0.00132956,"INCLINATION":81.1601,"RA_OF_ASC_NODE":179.5445,"ARG_OF_PERICENTER":184.214,"MEAN_ANOMALY":175.8982,"EPHEMERIS_TYPE":0,"CLASSIFICATION_TYPE":"U","NORAD_CAT_ID":12904,"ELEMENT_SET_NO":999,"REV_AT_EPOCH":97762,"BSTAR":0.00023299747,"MEAN_MOTION_DOT":5.315e-5,"MEAN_MOTION_DDOT":0},{"OBJECT_NAME":"SL-3 R/B","OBJECT_ID":"1982-013B","EPOCH":"2026-04-07T13:45:24.557760","MEAN_MOTION":15.2228448,"ECCENTRICITY":0.00235647,"INCLINATION":81.1718,"RA_OF_ASC_NODE":126.9095,"ARG_OF_PERICENTER":83.4667,"MEAN_ANOMALY":276.9247,"EPHEMERIS_TYPE":0,"CLASSIFICATION_TYPE":"U","NORAD_CAT_ID":13068,"ELEMENT_SET_NO":999,"REV_AT_EPOCH":40874,"BSTAR":0.00016224755,"MEAN_MOTION_DOT":3.789e-5,"MEAN_MOTION_DDOT":0},{"OBJECT_NAME":"SL-3 R/B","OBJECT_ID":"1982-039B","EPOCH":"2026-04-07T13:05:25.967616","MEAN_MOTION":15.10255299,"ECCENTRICITY":0.00280303,"INCLINATION":81.1545,"RA_OF_ASC_NODE":182.6859,"ARG_OF_PERICENTER":227.8482,"MEAN_ANOMALY":132.0363,"EPHEMERIS_TYPE":0,"CLASSIFICATION_TYPE":"U","NORAD_CAT_ID":13154,"ELEMENT_SET_NO":999,"REV_AT_EPOCH":38599,"BSTAR":0.00014023609,"MEAN_MOTION_DOT":2.338e-5,"MEAN_MOTION_DDOT":0},{"OBJECT_NAME":"SL-3 R/B","OBJECT_ID":"1982-079B","EPOCH":"2026-04-07T14:28:06.729888","MEAN_MOTION":15.2518977,"ECCENTRICITY":0.00253218,"INCLINATION":81.1466,"RA_OF_ASC_NODE":158.9342,"ARG_OF_PERICENTER":70.0734,"MEAN_ANOMALY":290.3224,"EPHEMERIS_TYPE":0,"CLASSIFICATION_TYPE":"U","NORAD_CAT_ID":13403,"ELEMENT_SET_NO":999,"REV_AT_EPOCH":38210,"BSTAR":0.00017629308,"MEAN_MOTION_DOT":4.49e-5,"MEAN_MOTION_DDOT":0},{"OBJECT_NAME":"SL-14 R/B","OBJECT_ID":"1982-092B","EPOCH":"2026-04-07T12:40:22.768320","MEAN_MOTION":14.86693987,"ECCENTRICITY":0.00197136,"INCLINATION":82.5648,"RA_OF_ASC_NODE":114.4184,"ARG_OF_PERICENTER":201.3018,"MEAN_ANOMALY":275.2392,"EPHEMERIS_TYPE":0,"CLASSIFICATION_TYPE":"U","NORAD_CAT_ID":13553,"ELEMENT_SET_NO":999,"REV_AT_EPOCH":33321,"BSTAR":4.9983747e-5,"MEAN_MOTION_DOT":4.7e-6,"MEAN_MOTION_DDOT":0},{"OBJECT_NAME":"SL-3 R/B","OBJECT_ID":"1983-010B","EPOCH":"2026-04-07T08:28:26.313312","MEAN_MOTION":15.47355623,"ECCENTRICITY":0.00152555,"INCLINATION":81.1029,"RA_OF_ASC_NODE":327.0814,"ARG_OF_PERICENTER":310.3794,"MEAN_ANOMALY":49.6119,"EPHEMERIS_TYPE":0,"CLASSIFICATION_TYPE":"U","NORAD_CAT_ID":13819,"ELEMENT_SET_NO":999,"REV_AT_EPOCH":36237,"BSTAR":0.00030199059,"MEAN_MOTION_DOT":0.0001554,"MEAN_MOTION_DDOT":0},{"OBJECT_NAME":"SL-3 R/B","OBJECT_ID":"1983-075B","EPOCH":"2026-04-07T13:26:35.350368","MEAN_MOTION":15.39149644,"ECCENTRICITY":0.00230434,"INCLINATION":97.6142,"RA_OF_ASC_NODE":103.2465,"ARG_OF_PERICENTER":123.9685,"MEAN_ANOMALY":236.3755,"EPHEMERIS_TYPE":0,"CLASSIFICATION_TYPE":"U","NORAD_CAT_ID":14208,"ELEMENT_SET_NO":999,"REV_AT_EPOCH":33459,"BSTAR":0.00029382115,"MEAN_MOTION_DOT":0.0001142,"MEAN_MOTION_DDOT":0},{"OBJECT_NAME":"COSMOS 1536","OBJECT_ID":"1984-013A","EPOCH":"2026-04-07T09:53:51.877536","MEAN_MOTION":15.2425778,"ECCENTRICITY":0.00145051,"INCLINATION":82.543,"RA_OF_ASC_NODE":79.282,"ARG_OF_PERICENTER":173.4814,"MEAN_ANOMALY":186.6615,"EPHEMERIS_TYPE":0,"CLASSIFICATION_TYPE":"U","NORAD_CAT_ID":14699,"ELEMENT_SET_NO":999,"REV_AT_EPOCH":27699,"BSTAR":0.00032493087,"MEAN_MOTION_DOT":7.984e-5,"MEAN_MOTION_DDOT":0},{"OBJECT_NAME":"SL-14 R/B","OBJECT_ID":"1984-027B","EPOCH":"2026-04-07T13:56:05.110944","MEAN_MOTION":14.86010246,"ECCENTRICITY":0.00167567,"INCLINATION":82.5433,"RA_OF_ASC_NODE":217.9169,"ARG_OF_PERICENTER":235.0119,"MEAN_ANOMALY":124.9525,"EPHEMERIS_TYPE":0,"CLASSIFICATION_TYPE":"U","NORAD_CAT_ID":14820,"ELEMENT_SET_NO":999,"REV_AT_EPOCH":25192,"BSTAR":6.6675833e-5,"MEAN_MOTION_DOT":6.08e-6,"MEAN_MOTION_DDOT":0},{"OBJECT_NAME":"SL-8 R/B","OBJECT_ID":"1985-006B","EPOCH":"2026-04-07T14:14:14.571744","MEAN_MOTION":14.3780476,"ECCENTRICITY":0.00173614,"INCLINATION":74.0463,"RA_OF_ASC_NODE":207.962,"ARG_OF_PERICENTER":116.8867,"MEAN_ANOMALY":254.4279,"EPHEMERIS_TYPE":0,"CLASSIFICATION_TYPE":"U","NORAD_CAT_ID":15483,"ELEMENT_SET_NO":999,"REV_AT_EPOCH":15818,"BSTAR":0.000107227,"MEAN_MOTION_DOT":2.97e-6,"MEAN_MOTION_DDOT":0},{"OBJECT_NAME":"SL-12 R/B(2)","OBJECT_ID":"1985-042D","EPOCH":"2026-04-07T06:20:19.351968","MEAN_MOTION":14.21991316,"ECCENTRICITY":0.00329043,"INCLINATION":71.1103,"RA_OF_ASC_NODE":27.3575,"ARG_OF_PERICENTER":80.6955,"MEAN_ANOMALY":29.7991,"EPHEMERIS_TYPE":0,"CLASSIFICATION_TYPE":"U","NORAD_CAT_ID":15772,"ELEMENT_SET_NO":999,"REV_AT_EPOCH":11845,"BSTAR":5.7362851e-5,"MEAN_MOTION_DOT":8.0e-7,"MEAN_MOTION_DDOT":0},{"OBJECT_NAME":"SL-14 R/B","OBJECT_ID":"1985-069B","EPOCH":"2026-04-07T10:07:36.457536","MEAN_MOTION":14.86466055,"ECCENTRICITY":0.00203449,"INCLINATION":82.5301,"RA_OF_ASC_NODE":357.9236,"ARG_OF_PERICENTER":96.628,"MEAN_ANOMALY":263.7253,"EPHEMERIS_TYPE":0,"CLASSIFICATION_TYPE":"U","NORAD_CAT_ID":15945,"ELEMENT_SET_NO":999,"REV_AT_EPOCH":17710,"BSTAR":5.8778369e-5,"MEAN_MOTION_DOT":5.46e-6,"MEAN_MOTION_DDOT":0},{"OBJECT_NAME":"SL-16 R/B","OBJECT_ID":"1985-097B","EPOCH":"2026-04-07T05:19:50.741184","MEAN_MOTION":14.16602355,"ECCENTRICITY":0.0009055,"INCLINATION":71.001,"RA_OF_ASC_NODE":80.4812,"ARG_OF_PERICENTER":225.2397,"MEAN_ANOMALY":147.2873,"EPHEMERIS_TYPE":0,"CLASSIFICATION_TYPE":"U","NORAD_CAT_ID":16182,"ELEMENT_SET_NO":999,"REV_AT_EPOCH":9127,"BSTAR":1.1024787e-5,"MEAN_MOTION_DOT":-2.6e-7,"MEAN_MOTION_DDOT":0}]
