{"fetched_at":"2026-04-08T02:13:12Z","count":7496,"tles":[{"name":"SL-8 R/B","line1":"1 11574U 79089B   26097.52948730  .00000346  00000+0  11246-3 0  9992","line2":"2 11574  74.0706  37.6549 0016405 206.1581 153.8749 14.42371421440269","category":"Other"},{"name":"SL-3 R/B","line1":"1 13154U 82039B   26097.54543944  .00002338  00000+0  14024-3 0  9997","line2":"2 13154  81.1545 182.6859 0028030 227.8482 132.0363 15.10255299385996","category":"Other"},{"name":"SL-3 R/B","line1":"1 13819U 83010B   26097.35308233  .00015540  00000+0  30199-3 0  9994","line2":"2 13819  81.1029 327.0814 0015255 310.3794  49.6119 15.47355623362377","category":"Other"},{"name":"SL-16 R/B","line1":"1 16182U 85097B   26097.22211506 -.00000026  00000+0  11025-4 0  9991","line2":"2 16182  71.0010  80.4812 0009055 225.2397 147.2873 14.16602355 91275","category":"Other"},{"name":"SL-3 R/B","line1":"1 13403U 82079B   26097.60285567  .00004490  00000+0  17629-3 0  9994","line2":"2 13403  81.1466 158.9342 0025321  70.0734 290.3224 15.25189770382106","category":"Other"},{"name":"SL-14 R/B","line1":"1 13553U 82092B   26097.52804130  .00000470  00000+0  49984-4 0  9993","line2":"2 13553  82.5648 114.4184 0019713 201.3018 275.2392 14.86693987333214","category":"Other"},{"name":"SL-12 R/B(2)","line1":"1 15772U 85042D   26097.26411287  .00000080  00000+0  57363-4 0  9991","line2":"2 15772  71.1103  27.3575 0032904  80.6955  29.7991 14.21991316118450","category":"Other"},{"name":"SL-3 R/B","line1":"1 12465U 81046B   26097.58956522  .00012573  00000+0  28516-3 0  9995","line2":"2 12465  81.2297 255.0149 0018035 279.1509  80.7694 15.42761594442889","category":"Other"},{"name":"SL-3 R/B","line1":"1 13068U 82013B   26097.57320090  .00003789  00000+0  16225-3 0  9997","line2":"2 13068  81.1718 126.9095 0023564  83.4667 276.9247 15.22284480408748","category":"Other"},{"name":"COSMOS 1536","line1":"1 14699U 84013A   26097.41240599  .00007984  00000+0  32493-3 0  9994","line2":"2 14699  82.5430  79.2820 0014505 173.4814 186.6615 15.24257780276991","category":"Other"},{"name":"SL-8 R/B","line1":"1 15483U 85006B   26097.59322421  .00000297  00000+0  10723-3 0  9995","line2":"2 15483  74.0463 207.9620 0017361 116.8867 254.4279 14.37804760158184","category":"Other"},{"name":"SL-14 R/B","line1":"1 11672U 80005B   26097.51923355  .00000637  00000+0  61765-4 0  9991","line2":"2 11672  82.5108 279.8803 0017115  69.3997 290.9056 14.90966329480785","category":"Other"},{"name":"SL-3 R/B","line1":"1 12904U 81103B   26097.57644268  .00005315  00000+0  23300-3 0  9999","line2":"2 12904  81.1601 179.5445 0013295 184.2140 175.8982 15.21736171977625","category":"Other"},{"name":"SL-3 R/B","line1":"1 14208U 83075B   26097.56013137  .00011420  00000+0  29382-3 0  9992","line2":"2 14208  97.6142 103.2465 0023043 123.9685 236.3755 15.39149644334594","category":"Other"},{"name":"SL-8 R/B","line1":"1 12139U 81003B   26097.46574870  .00022384  00000+0  55630-3 0  9993","line2":"2 12139  82.9364 263.3859 0258961  78.7265 284.2947 15.12341007319027","category":"Other"},{"name":"SL-14 R/B","line1":"1 14820U 84027B   26097.58061471  .00000608  00000+0  66676-4 0  9990","line2":"2 14820  82.5433 217.9169 0016756 235.0119 124.9525 14.86010246251922","category":"Other"},{"name":"SL-14 R/B","line1":"1 15945U 85069B   26097.42194974  .00000546  00000+0  58778-4 0  9999","line2":"2 15945  82.5301 357.9236 0020344  96.6280 263.7253 14.86466055177103","category":"Other"}]}